[{"OBJECT_NAME":"BEIJING 1","OBJECT_ID":"2005-043A","EPOCH":"2026-03-09T22:42:03.803040","MEAN_MOTION":14.63461381,"ECCENTRICITY":0.00135876,"INCLINATION":98.2733,"RA_OF_ASC_NODE":201.7002,"ARG_OF_PERICENTER":229.3991,"MEAN_ANOMALY":130.6029,"EPHEMERIS_TYPE":0,"CLASSIFICATION_TYPE":"U","NORAD_CAT_ID":28890,"ELEMENT_SET_NO":999,"REV_AT_EPOCH":8613,"BSTAR":0.0001420019,"MEAN_MOTION_DOT":6.87e-6,"MEAN_MOTION_DDOT":0},{"OBJECT_NAME":"TANSAT","OBJECT_ID":"2016-081A","EPOCH":"2026-03-10T00:08:31.483680","MEAN_MOTION":14.59869105,"ECCENTRICITY":0.00193016,"INCLINATION":98.5363,"RA_OF_ASC_NODE":66.3451,"ARG_OF_PERICENTER":255.2453,"MEAN_ANOMALY":104.6607,"EPHEMERIS_TYPE":0,"CLASSIFICATION_TYPE":"U","NORAD_CAT_ID":41898,"ELEMENT_SET_NO":999,"REV_AT_EPOCH":49015,"BSTAR":6.4461742e-5,"MEAN_MOTION_DOT":2.58e-6,"MEAN_MOTION_DDOT":0}]
